STARLINK-2084_new
1 17368C 21005V   21326.12203936  .00004228  00000-0  28330-3 0  3265
2 17368  53.0535 263.1949 0002023  59.6166  17.4129 15.06391283    18
STARLINK-2084_old
1 27368C 21005V   21325.12656181  .00006638  00000-0  44465-3 0  3251
2 27368  53.0532 267.6638 0002037  60.1699  15.3165 15.06400066    19
